     3.04           N: GNSS NAV DATA    M: MIXED            RINEX VERSION / TYPE
Converto v3.5.6     IGN                 20211027 164908 UTC PGM / RUN BY / DATE 
                                                            END OF HEADER       
S33 2021 05 06 20 59 44-1.536682248116E-08 0.000000000000E+00 4.211590000000E+05
    -2.661679360000E+04 6.375000000000E-05-1.250000000000E-08 3.100000000000E+01
    -3.270062976000E+04-1.187500000000E-04 0.000000000000E+00 4.000000000000E+00
     7.198000000000E+00 2.080000000000E-04-6.250000000000E-08 8.200000000000E+01
S33 2021 05 06 21 04 00-1.536682248116E-08-1.818989403546E-12 4.214170000000E+05
    -2.661677768000E+04 6.062500000000E-05-1.250000000000E-08 3.100000000000E+01
    -3.270066016000E+04-1.187500000000E-04 0.000000000000E+00 4.000000000000E+00
     7.249200000000E+00 2.000000000000E-04-6.250000000000E-08 8.300000000000E+01
S33 2021 05 06 21 08 16-1.583248376846E-08-2.728484105319E-12 4.216740000000E+05
    -2.661676256000E+04 5.625000000000E-05-1.250000000000E-08 3.100000000000E+01
    -3.270069056000E+04-1.175000000000E-04 0.000000000000E+00 4.000000000000E+00
     7.298400000000E+00 1.880000000000E-04-6.250000000000E-08 8.400000000000E+01
S33 2021 05 06 21 12 32-1.629814505577E-08-4.547473508865E-12 4.219270000000E+05
    -2.661674856000E+04 5.187500000000E-05-1.250000000000E-08 3.100000000000E+01
    -3.270072064000E+04-1.162500000000E-04 0.000000000000E+00 4.000000000000E+00
     7.344400000000E+00 1.760000000000E-04-6.250000000000E-08 8.500000000000E+01
S33 2021 05 06 21 16 48-1.722946763039E-08-5.456968210638E-12 4.221850000000E+05
    -2.661673568000E+04 4.750000000000E-05-1.250000000000E-08 3.100000000000E+01
    -3.270075040000E+04-1.162500000000E-04 0.000000000000E+00 4.000000000000E+00
     7.387600000000E+00 1.680000000000E-04-6.250000000000E-08 8.600000000000E+01
S33 2021 05 06 21 21 04-1.862645149231E-08-4.547473508865E-12 4.224420000000E+05
    -2.661672392000E+04 4.437500000000E-05-1.250000000000E-08 3.100000000000E+01
    -3.270078016000E+04-1.137500000000E-04 1.250000000000E-08 4.000000000000E+00
     7.428400000000E+00 1.560000000000E-04-6.250000000000E-08 8.700000000000E+01
S33 2021 05 06 21 25 20-1.955777406693E-08-2.728484105319E-12 4.226950000000E+05
    -2.661671296000E+04 4.312500000000E-05-1.250000000000E-08 3.100000000000E+01
    -3.270080888000E+04-1.131250000000E-04 1.250000000000E-08 4.000000000000E+00
     7.466400000000E+00 1.480000000000E-04-6.250000000000E-08 8.800000000000E+01
S33 2021 05 06 21 29 36-2.002343535423E-08-9.094947017729E-13 4.229530000000E+05
    -2.661670232000E+04 3.750000000000E-05-1.250000000000E-08 3.100000000000E+01
    -3.270083744000E+04-1.125000000000E-04 1.250000000000E-08 4.000000000000E+00
     7.502400000000E+00 1.360000000000E-04-6.250000000000E-08 8.900000000000E+01
S33 2021 05 06 21 33 52-2.002343535423E-08 9.094947017729E-13 4.232060000000E+05
    -2.661669312000E+04 3.437500000000E-05-1.250000000000E-08 3.100000000000E+01
    -3.270086584000E+04-1.112500000000E-04 1.250000000000E-08 4.000000000000E+00
     7.535200000000E+00 1.280000000000E-04-6.250000000000E-08 9.000000000000E+01
S33 2021 05 06 21 38 08-1.955777406693E-08 3.637978807092E-12 4.234620000000E+05
    -2.661668472000E+04 3.125000000000E-05-1.250000000000E-08 3.100000000000E+01
    -3.270089392000E+04-1.093750000000E-04 1.250000000000E-08 4.000000000000E+00
     7.566000000000E+00 1.160000000000E-04-6.250000000000E-08 9.100000000000E+01
S33 2021 05 06 21 42 24-1.862645149231E-08 5.456968210638E-12 4.237200000000E+05
    -2.661667712000E+04 2.750000000000E-05-1.250000000000E-08 3.100000000000E+01
    -3.270092152000E+04-1.075000000000E-04 1.250000000000E-08 4.000000000000E+00
     7.593600000000E+00 1.080000000000E-04-6.250000000000E-08 9.200000000000E+01
S33 2021 05 06 21 46 40-1.722946763039E-08 8.185452315956E-12 4.239740000000E+05
    -2.661667048000E+04 2.375000000000E-05-1.250000000000E-08 3.100000000000E+01
    -3.270094864000E+04-1.056250000000E-04 1.250000000000E-08 4.000000000000E+00
     7.619200000000E+00 9.600000000000E-05-6.250000000000E-08 9.300000000000E+01
S33 2021 05 06 21 50 56-1.490116119385E-08 1.000444171950E-11 4.242300000000E+05
    -2.661666480000E+04 2.187500000000E-05-1.250000000000E-08 3.100000000000E+01
    -3.270097528000E+04-1.037500000000E-04 1.250000000000E-08 4.000000000000E+00
     7.641600000000E+00 8.800000000000E-05-6.250000000000E-08 9.400000000000E+01
S33 2021 05 06 21 55 12-1.210719347000E-08 1.091393642128E-11 4.244880000000E+05
    -2.661665960000E+04 2.125000000000E-05-1.250000000000E-08 3.100000000000E+01
    -3.270100144000E+04-9.937500000000E-05 1.250000000000E-08 4.000000000000E+00
     7.662000000000E+00 7.600000000000E-05-6.250000000000E-08 9.500000000000E+01
S33 2021 05 06 21 59 28-9.313225746155E-09 1.182343112305E-11 4.247420000000E+05
    -2.661665456000E+04 1.687500000000E-05-1.250000000000E-08 3.100000000000E+01
    -3.270102648000E+04-9.812500000000E-05 1.250000000000E-08 4.000000000000E+00
     7.679600000000E+00 6.800000000000E-05-6.250000000000E-08 9.600000000000E+01
S33 2021 05 06 22 03 44-6.053596735001E-09 1.091393642128E-11 4.249980000000E+05
    -2.661665064000E+04 1.562500000000E-05-1.250000000000E-08 3.100000000000E+01
    -3.270105120000E+04-9.562500000000E-05 1.250000000000E-08 4.000000000000E+00
     7.694800000000E+00 5.200000000000E-05-6.250000000000E-08 9.700000000000E+01
S33 2021 05 06 22 08 00-3.259629011154E-09 1.091393642128E-11 4.252560000000E+05
    -2.661664704000E+04 1.375000000000E-05-1.250000000000E-08 3.100000000000E+01
    -3.270107528000E+04-9.250000000000E-05 1.250000000000E-08 4.000000000000E+00
     7.706000000000E+00 4.800000000000E-05-6.250000000000E-08 9.800000000000E+01
S33 2021 05 06 22 12 16-4.656612873077E-10 9.094947017729E-12 4.255100000000E+05
    -2.661664392000E+04 1.062500000000E-05-1.250000000000E-08 3.100000000000E+01
    -3.270109856000E+04-9.062500000000E-05 1.250000000000E-08 4.000000000000E+00
     7.716400000000E+00 3.600000000000E-05-6.250000000000E-08 9.900000000000E+01
S33 2021 05 06 22 16 32 1.862645149231E-09 5.456968210638E-12 4.257660000000E+05
    -2.661664160000E+04 8.750000000000E-06-1.250000000000E-08 3.100000000000E+01
    -3.270112136000E+04-8.812500000000E-05 1.250000000000E-08 4.000000000000E+00
     7.723600000000E+00 2.400000000000E-05-6.250000000000E-08 1.000000000000E+02
S33 2021 05 06 22 20 48 3.259629011154E-09 2.728484105319E-12 4.260240000000E+05
    -2.661663976000E+04 6.875000000000E-06-1.250000000000E-08 3.100000000000E+01
    -3.270114352000E+04-8.500000000000E-05 1.250000000000E-08 4.000000000000E+00
     7.727600000000E+00 1.200000000000E-05-6.250000000000E-08 1.010000000000E+02
S33 2021 05 06 22 25 04 3.725290298462E-09 9.094947017729E-13 4.262780000000E+05
    -2.661663840000E+04 3.750000000000E-06-1.250000000000E-08 3.100000000000E+01
    -3.270116488000E+04-8.312500000000E-05 1.250000000000E-08 4.000000000000E+00
     7.728800000000E+00 4.000000000000E-06-6.250000000000E-08 1.020000000000E+02
S33 2021 05 06 22 29 20 3.725290298462E-09-9.094947017729E-13 4.265340000000E+05
    -2.661663784000E+04 1.875000000000E-06-1.250000000000E-08 3.100000000000E+01
    -3.270118576000E+04-8.062500000000E-05 1.250000000000E-08 4.000000000000E+00
     7.727600000000E+00-4.000000000000E-06-6.250000000000E-08 1.030000000000E+02
S33 2021 05 06 22 33 36 3.259629011154E-09-1.818989403546E-12 4.267920000000E+05
    -2.661663776000E+04 0.000000000000E+00-1.250000000000E-08 3.100000000000E+01
    -3.270120600000E+04-7.812500000000E-05 1.250000000000E-08 4.000000000000E+00
     7.724400000000E+00-1.600000000000E-05-6.250000000000E-08 1.040000000000E+02
S33 2021 05 06 22 37 52 2.793967723846E-09-9.094947017729E-13 4.270460000000E+05
    -2.661663816000E+04-1.875000000000E-06-1.250000000000E-08 3.100000000000E+01
    -3.270122560000E+04-7.500000000000E-05 1.250000000000E-08 4.000000000000E+00
     7.718400000000E+00-2.800000000000E-05-6.250000000000E-08 1.050000000000E+02
S33 2021 05 06 22 42 08 2.328306436539E-09 9.094947017729E-13 4.273020000000E+05
    -2.661663904000E+04-2.500000000000E-06-1.250000000000E-08 3.100000000000E+01
    -3.270124440000E+04-7.250000000000E-05 1.250000000000E-08 4.000000000000E+00
     7.709200000000E+00-3.600000000000E-05-6.250000000000E-08 1.060000000000E+02
S33 2021 05 06 22 46 24 2.328306436539E-09 9.094947017729E-13 4.275600000000E+05
    -2.661664008000E+04-4.375000000000E-06 0.000000000000E+00 3.100000000000E+01
    -3.270126256000E+04-7.000000000000E-05 1.250000000000E-08 4.000000000000E+00
     7.698000000000E+00-4.800000000000E-05-6.250000000000E-08 1.070000000000E+02
S33 2021 05 06 22 50 40 2.328306436539E-09 1.818989403546E-12 4.278140000000E+05
    -2.661664120000E+04-7.500000000000E-06 0.000000000000E+00 3.100000000000E+01
    -3.270128008000E+04-6.625000000000E-05 1.250000000000E-08 4.000000000000E+00
     7.683600000000E+00-6.000000000000E-05-6.250000000000E-08 1.080000000000E+02
S33 2021 05 06 22 54 56 2.793967723846E-09 2.728484105319E-12 4.280700000000E+05
    -2.661664312000E+04-8.125000000000E-06 0.000000000000E+00 3.100000000000E+01
    -3.270129664000E+04-6.437500000000E-05 1.250000000000E-08 4.000000000000E+00
     7.666000000000E+00-6.800000000000E-05-6.250000000000E-08 1.090000000000E+02
S33 2021 05 06 22 59 12 3.259629011154E-09 9.094947017729E-13 4.283280000000E+05
    -2.661664520000E+04-9.375000000000E-06 0.000000000000E+00 3.100000000000E+01
    -3.270131272000E+04-6.187500000000E-05 1.250000000000E-08 4.000000000000E+00
     7.646400000000E+00-7.600000000000E-05-6.250000000000E-08 1.100000000000E+02
S33 2021 05 06 23 03 28 3.259629011154E-09 9.094947017729E-13 4.285820000000E+05
    -2.661664760000E+04-1.000000000000E-05 0.000000000000E+00 3.100000000000E+01
    -3.270132816000E+04-5.875000000000E-05 1.250000000000E-08 4.000000000000E+00
     7.624800000000E+00-8.800000000000E-05-6.250000000000E-08 1.110000000000E+02
